CUTE-1 (CO-55)          
1 27844U 03031E   20309.92268642  .00000053  00000-0  43663-4 0  9999
2 27844  98.6829 315.5436 0010088  15.1645 344.9834 14.22265456900062
CUBESAT XI-IV (CO-57)   
1 27848U 03031J   20309.70881154  .00000040  00000-0  37906-4 0  9997
2 27848  98.6892 315.8994 0010215  28.0841 332.0886 14.21848774899871
CUBESAT XI-V            
1 28895U 05043F   20309.88664415  .00000195  00000-0  46316-4 0  9999
2 28895  98.0301  82.4768 0016545 193.8247 166.2505 14.63818234801155
CUTE-1.7+APD II (CO-65) 
1 32785U 08021C   20309.89512717  .00000326  00000-0  40663-4 0  9994
2 32785  97.5873 291.8377 0013855  33.3239 326.8848 14.88544979678760
AAUSAT-II               
1 32788U 08021F   20309.92925196  .00000597  00000-0  59246-4 0  9997
2 32788  97.4957 308.2253 0010487 308.8515  51.1770 14.95208264680303
DELFI-C3 (DO-64)        
1 32789U 08021G   20309.88500725  .00001359  00000-0  91960-4 0  9996
2 32789  97.4038 347.6930 0011787 186.6622 173.4452 15.08071463682972
SEEDS II (CO-66)        
1 32791U 08021J   20309.92061555  .00000607  00000-0  66408-4 0  9991
2 32791  97.5518 297.9513 0013270   1.2696 358.8554 14.91153245679311
SWISSCUBE               
1 35932U 09051B   20309.50579285  .00000163  00000-0  47792-4 0  9995
2 35932  98.6099 136.3200 0008535  61.5283 298.6772 14.56441997590214
BEESAT-1                
1 35933U 09051C   20309.48116677  .00000133  00000-0  40877-4 0  9999
2 35933  98.6081 138.1597 0006849  73.6950 286.5000 14.56511654590360
ITUPSAT1                
1 35935U 09051E   20309.76445396  .00000097  00000-0  33497-4 0  9994
2 35935  98.6186 138.6312 0009138  72.2734 287.9459 14.55652527590083
TISAT 1                 
1 36799U 10035E   20309.92663393  .00000506  00000-0  56688-4 0  9996
2 36799  98.2023 125.7043 0011313 225.7771 134.2518 14.91469536559867
M-CUBED & EXP-1 PRIME   
1 37855U 11061F   20309.91414390  .00001209  00000-0  66666-4 0  9998
2 37855 101.7277 110.8619 0169759  17.9581 342.7531 15.06700789492350
AEROCUBE 4.5A           
1 38767U 12048K   20309.93731181  .00000478  00000-0  54573-4 0  9990
2 38767  64.6653 157.0284 0134193  85.2720 276.3701 14.92429839 62763
AEROCUBE 4.5B           
1 38768U 12048L   20309.93386253  .00000737  00000-0  70465-4 0  9993
2 38768  64.6657 123.0795 0124451  80.0202 281.4930 14.96157384 62894
STRAND-1                
1 39090U 13009E   20309.84340337  .00000029  00000-0  25135-4 0  9991
2 39090  98.4426 151.1170 0008300 222.2921 137.7625 14.35151223402827
SOMP                    
1 39134U 13015E   20309.93078911  .00001615  00000-0  80354-4 0  9999
2 39134  64.8623 182.0096 0020802 222.9897 136.9607 15.21448217417041
BEESAT-3                
1 39135U 13015F   20309.93413658  .00001370  00000-0  75409-4 0  9994
2 39135  64.8660 207.6273 0024932 219.6028 140.3279 15.18488446416543
BEESAT-2                
1 39136U 13015G   20309.90615488  .00001499  00000-0  82418-4 0  9997
2 39136  64.8762 213.2081 0034738 265.5390  94.1768 15.17898299416431
NEE-01 PEGASO           
1 39151U 13018B   20309.80595018  .00000221  00000-0  35959-4 0  9992
2 39151  97.9772  47.6860 0017117  10.5181 349.6386 14.80223573406437
ESTCUBE 1               
1 39161U 13021C   20309.82161236  .00000220  00000-0  42560-4 0  9995
2 39161  97.9584  29.9858 0010203 143.8351 216.3548 14.72369981402696
POPACS 1                
1 39268U 13055D   20309.81310117  .00006297  00000-0  17033-3 0  9999
2 39268  80.9987 147.6745 0612386 164.9337 197.1049 14.40456234368195
POPACS 2                
1 39269U 13055E   20309.36985155  .00002433  00000-0  70246-4 0  9994
2 39269  81.0161 189.4631 0673653 273.3952  79.0451 14.26217698367144
POPACS 3                
1 39270U 13055F   20309.06886185  .00003650  00000-0  11351-3 0  9999
2 39270  81.0180 213.3823 0707976 341.9084  15.8000 14.17334008365603
ZACUBE-1 (TSHEPISOSAT)  
1 39417U 13066B   20309.93528939  .00000250  00000-0  37583-4 0  9999
2 39417  97.5743 300.2103 0058823 175.8089 184.3630 14.81346055375832
WNISAT-1                
1 39423U 13066H   20309.71902378  .00000009  00000-0  11480-4 0  9995
2 39423  97.7977 221.6021 0174830 177.7901 182.4113 14.53148639368795
TRITON-1                
1 39427U 13066M   20309.88660874  .00000406  00000-0  72487-4 0  9994
2 39427  97.7449 263.1437 0113455 349.6619  10.2254 14.68079177372264
GOMX-1                  
1 39430U 13066Q   20309.80730129  .00000268  00000-0  56940-4 0  9993
2 39430  97.7995 239.9115 0152090 102.2493 259.5788 14.59458397370273
CUBEBUG-2 (LO-74)       
1 39440U 13066AA  20309.95042808  .00000276  00000-0  45334-4 0  9994
2 39440  97.6477 284.8065 0078658 243.7148 115.5966 14.76084151373304
NEE-02 KRYSAOR          
1 39441U 13066AB  20309.92195455  .00000184  00000-0  33320-4 0  9999
2 39441  97.6558 282.2207 0080149 253.7030 105.5354 14.75068293373111
FUNCUBE-1 (AO-73)       
1 39444U 13066AE  20309.91912632  .00000318  00000-0  45029-4 0  9993
2 39444  97.5673 302.4951 0058147 167.3823 192.8862 14.82213979374176
UWE-3                   
1 39446U 13066AG  20309.90163383  .00000260  00000-0  41016-4 0  9993
2 39446  97.6124 291.8877 0069019 210.6392 149.0782 14.78615702373327
AEROCUBE 5A             
1 39465U 13072D   20309.84385947  .00010332  00000-0  80315-3 0  9991
2 39465 120.4980 311.9429 0266833  31.0195 330.6326 14.78005750 62108
AEROCUBE 5B             
1 39466U 13072E   20309.92996571  .00007947  00000-0  52746-3 0  9997
2 39466 120.4826 356.7770 0237729  42.0752 319.8303 14.88129508 62469
BRITE-CA1 (TORONTO)     
1 40020U 14033L   20309.95276378  .00000120  00000-0  28799-4 0  9990
2 40020  97.7312 130.1394 0087006 345.2448  14.6220 14.66670704341249
DUCHIFAT-1              
1 40021U 14033M   20309.87930042  .00000539  00000-0  60294-4 0  9997
2 40021  97.9505 242.0242 0012611 178.2310 181.8954 14.91027784346814
NANOSATC-BR1            
1 40024U 14033Q   20309.71260617  .00000427  00000-0  50023-4 0  9992
2 40024  97.9328 237.7644 0011856 183.6089 176.5045 14.90178413346121
QB50P1                  
1 40025U 14033R   20309.75254671  .00000439  00000-0  52352-4 0  9990
2 40025  97.9182 234.0543 0011927 191.6178 168.4766 14.89225570345972
QB50P2                  
1 40032U 14033Y   20309.71235402  .00000366  00000-0  45144-4 0  9995
2 40032  97.9050 231.1657 0011404 188.2132 171.8900 14.88746247345853
PERSEUS-M2              
1 40037U 14033AD  20309.73932719  .00000159  00000-0  24128-4 0  9996
2 40037  97.8857 224.9958 0013624 207.4798 152.5698 14.86580959345500
PERSEUS-M1              
1 40039U 14033AF  20309.85201649  .00000122  00000-0  20140-4 0  9992
2 40039  97.8812 223.7295 0013503 205.1721 154.8838 14.86201332345428
POLYITAN-1              
1 40042U 14033AJ  20309.70491288  .00000468  00000-0  55696-4 0  9997
2 40042  97.9270 234.6330 0014249 183.4907 176.6212 14.88981094345862
TIGRISAT                
1 40043U 14033AK  20309.83438298  .00000168  00000-0  32138-4 0  9997
2 40043  97.6914 159.1876 0058465 264.8605  94.5930 14.74426570343038
AEROCUBE 6A             
1 40045U 14033AM  20309.57784036  .00000326  00000-0  53862-4 0  9997
2 40045  97.7164 165.1168 0056426 256.3885 103.1037 14.75646109343016
AEROCUBE 6B             
1 40046U 14033AN  20309.85923513  .00000358  00000-0  58498-4 0  9999
2 40046  97.7066 164.4937 0055538 254.4450 105.0625 14.75649852343195
UKUBE-1                 
1 40074U 14037F   20309.78576244  .00000369  00000-0  51183-4 0  9997
2 40074  98.4477 146.4694 0005266  36.6671 323.4902 14.84355587342572
BRITE-PL2 (HEWELIUSZ)   
1 40119U 14049B   20309.85452522  .00000153  00000-0  24555-4 0  9994
2 40119  97.8940  40.6843 0017650  14.8730 345.3000 14.84549997336525
FIREBIRD 4              
1 40378U 15003C   20309.82843852  .00003763  00000-0  14438-3 0  9997
2 40378  99.0857  38.8231 0122086 204.5029 155.0370 15.20665026318644
GRIFEX                  
1 40379U 15003D   20309.88025606  .00002155  00000-0  92648-4 0  9997
2 40379  99.0888  29.9503 0130958 232.2187 126.7123 15.16816343318121
EXOCUBE (CP10)          
1 40380U 15003E   20309.74549407  .00001753  00000-0  80064-4 0  9996
2 40380  99.0949  25.0360 0136008 249.0760 109.5865 15.14697209317783
AEROCUBE 8A             
1 40659U 15025J   20309.64380114  .00024679  00000-0  22665-3 0  9990
2 40659  55.0152   2.2404 0092971 179.1911 180.9296 15.62161896 65420
AEROCUBE 8B             
1 40660U 15025K   20309.77758127  .00024463  00000-0  22155-3 0  9994
2 40660  55.0125 359.1199 0091743 181.8314 178.2402 15.62632780 65468
TIANWANG 1C (TW-1C)     
1 40926U 15051B   20309.75427615  .00059892  00000-0  41989-3 0  9991
2 40926  97.0652   2.9481 0002958 265.1944 234.8110 15.74033633289026
TIANWANG 1A (TW-1A)     
1 40928U 15051D   20309.82240918  .00005158  00000-0  11689-3 0  9990
2 40928  97.0987 334.2201 0011466  43.3221 130.5531 15.43459482287014
EXACTVIEW 9             
1 40936U 15052G   20309.05172917  .00000851  00000-0  29842-4 0  9994
2 40936   6.0036  64.8382 0009901  78.4733 281.6506 14.76610042275880
AEROCUBE 5C             
1 40965U 15058B   20309.68469919  .00000074  00000-0  28126-4 0  9993
2 40965  64.7783  79.1925 0179846  23.2402 337.6705 14.74585292 61984
AEROCUBE 7              
1 40966U 15058C   20309.83926902  .00000120  00000-0  33218-4 0  9991
2 40966  64.7783  77.0032 0178811  22.8502 338.0432 14.74899359 62017
ATHENOXAT 1             
1 41168U 15077C   20308.67394406  .00003148  00000-0  12827-3 0  9991
2 41168  14.9923 119.7148 0011608 274.9938 156.3701 15.14716603270487
GALASSIA                
1 41170U 15077E   20309.80170272  .00002491  00000-0  92940-4 0  9998
2 41170  14.9882 102.8335 0012582 310.4401  49.4823 15.15002229270703
VELOX-II                
1 41171U 15077F   20308.92622785  .00002018  00000-0  76198-4 0  9994
2 41171  14.9901 158.5706 0008688 185.1067 174.9165 15.11920446270140
